start=new Date('2021-12-30T00:00:00.000Z').valueOf();
sats=[{"OBJECT_NAME":"STARLINK-2475","DECAY_DATE":null,"ARG_OF_PERICENTER":"81.0720","MEAN_ANOMALY":"279.0510","MEAN_MOTION_DOT":"0.00002158","TIME_SYSTEM":"UTC","MEAN_MOTION":"15.06399723","EPHEMERIS_TYPE":"0","RCS_SIZE":"LARGE","NORAD_CAT_ID":"48133","MEAN_MOTION_DDOT":"0.0000000000000","COUNTRY_CODE":"US","ELEMENT_SET_NO":"999","REF_FRAME":"TEME","OBJECT_TYPE":"PAYLOAD","TLE_LINE2":"2 48133  53.0551 203.9183 0002133  81.0720 279.0510 15.06399723 41681","FILE":"3255236","PERIAPSIS":"545.737","EPOCH":"2021-12-29T19:56:12.307200","GP_ID":"192744361","ECCENTRICITY":"0.00021330","MEAN_ELEMENT_THEORY":"SGP4","REV_AT_EPOCH":"4168","PERIOD":"95.592","OBJECT_ID":"2021-027AT","TLE_LINE1":"1 48133U 21027AT  21363.83069800  .00002158  00000-0  16374-3 0  9990","BSTAR":"0.00016374000000","CENTER_NAME":"EARTH","LAUNCH_DATE":"2021-04-07","SITE":"AFETR","RA_OF_ASC_NODE":"203.9183","SEMIMAJOR_AXIS":"6925.349","INCLINATION":"53.0551","CLASSIFICATION_TYPE":"U","APOAPSIS":"548.692"},{"SITE":"AFETR","LAUNCH_DATE":"2021-04-07","RA_OF_ASC_NODE":"203.6838","REV_AT_EPOCH":"4168","PERIOD":"95.592","MEAN_ELEMENT_THEORY":"SGP4","TLE_LINE1":"1 48134U 21027AU  21363.88230703 -.00000012  00000-0  18123-4 0  9991","OBJECT_ID":"2021-027AU","BSTAR":"0.00001812300000","CENTER_NAME":"EARTH","INCLINATION":"53.0549","SEMIMAJOR_AXIS":"6925.361","CLASSIFICATION_TYPE":"U","APOAPSIS":"548.906","MEAN_MOTION":"15.06396093","EPHEMERIS_TYPE":"0","MEAN_MOTION_DOT":"-0.00000012","TIME_SYSTEM":"UTC","NORAD_CAT_ID":"48134","RCS_SIZE":"LARGE","MEAN_MOTION_DDOT":"0.0000000000000","COUNTRY_CODE":"US","ELEMENT_SET_NO":"999","OBJECT_NAME":"STARLINK-2476","ARG_OF_PERICENTER":"79.5512","DECAY_DATE":null,"MEAN_ANOMALY":"280.5750","PERIAPSIS":"545.545","EPOCH":"2021-12-29T21:10:31.327392","GP_ID":"192745110","ECCENTRICITY":"0.00024270","REF_FRAME":"TEME","OBJECT_TYPE":"PAYLOAD","TLE_LINE2":"2 48134  53.0549 203.6838 0002427  79.5512 280.5750 15.06396093 41680","FILE":"3255236"},{"ECCENTRICITY":"0.00023780","GP_ID":"192745362","EPOCH":"2021-12-29T20:49:54.822432","PERIAPSIS":"545.577","TLE_LINE2":"2 48135  53.0545 208.7462 0002378  79.1151 281.0106 15.06396743 41612","FILE":"3255236","OBJECT_TYPE":"PAYLOAD","REF_FRAME":"TEME","COUNTRY_CODE":"US","ELEMENT_SET_NO":"999","MEAN_MOTION_DDOT":"0.0000000000000","NORAD_CAT_ID":"48135","RCS_SIZE":"LARGE","TIME_SYSTEM":"UTC","MEAN_MOTION_DOT":"-0.00000162","EPHEMERIS_TYPE":"0","MEAN_MOTION":"15.06396743","MEAN_ANOMALY":"281.0106","DECAY_DATE":null,"ARG_OF_PERICENTER":"79.1151","OBJECT_NAME":"STARLINK-2478","APOAPSIS":"548.870","CLASSIFICATION_TYPE":"U","SEMIMAJOR_AXIS":"6925.359","INCLINATION":"53.0545","RA_OF_ASC_NODE":"208.7462","LAUNCH_DATE":"2021-04-07","SITE":"AFETR","BSTAR":"0.00000806450000","CENTER_NAME":"EARTH","OBJECT_ID":"2021-027AV","TLE_LINE1":"1 48135U 21027AV  21363.86799563 -.00000162  00000-0  80645-5 0  9999","MEAN_ELEMENT_THEORY":"SGP4","PERIOD":"95.592","REV_AT_EPOCH":"4161"},{"GP_ID":"192744110","EPOCH":"2021-12-29T20:12:07.619904","ECCENTRICITY":"0.00022280","PERIAPSIS":"545.669","FILE":"3255236","TLE_LINE2":"2 48136  53.0545 203.8556 0002228  76.8190 283.3048 15.06400465 41688","REF_FRAME":"TEME","OBJECT_TYPE":"PAYLOAD","MEAN_MOTION_DDOT":"0.0000000000000","COUNTRY_CODE":"US","ELEMENT_SET_NO":"999","MEAN_MOTION_DOT":"0.00000293","TIME_SYSTEM":"UTC","MEAN_MOTION":"15.06400465","EPHEMERIS_TYPE":"0","NORAD_CAT_ID":"48136","RCS_SIZE":"LARGE","DECAY_DATE":null,"ARG_OF_PERICENTER":"76.8190","MEAN_ANOMALY":"283.3048","OBJECT_NAME":"STARLINK-2479","CLASSIFICATION_TYPE":"U","APOAPSIS":"548.755","SEMIMAJOR_AXIS":"6925.347","INCLINATION":"53.0545","RA_OF_ASC_NODE":"203.8556","SITE":"AFETR","LAUNCH_DATE":"2021-04-07","CENTER_NAME":"EARTH","BSTAR":"0.00003858200000","MEAN_ELEMENT_THEORY":"SGP4","REV_AT_EPOCH":"4168","PERIOD":"95.592","OBJECT_ID":"2021-027AW","TLE_LINE1":"1 48136U 21027AW  21363.84175486  .00000293  00000-0  38582-4 0  9996"},{"BSTAR":"-0.00002686700000","CENTER_NAME":"EARTH","OBJECT_ID":"2021-027AX","TLE_LINE1":"1 48137U 21027AX  21363.86845786 -.00000682  00000-0 -26867-4 0  9993","MEAN_ELEMENT_THEORY":"SGP4","PERIOD":"95.592","REV_AT_EPOCH":"4196","RA_OF_ASC_NODE":"183.7332","LAUNCH_DATE":"2021-04-07","SITE":"AFETR","APOAPSIS":"548.836","CLASSIFICATION_TYPE":"U","SEMIMAJOR_AXIS":"6925.350","INCLINATION":"53.0541","MEAN_ANOMALY":"275.6928","DECAY_DATE":null,"ARG_OF_PERICENTER":"84.4328","OBJECT_NAME":"STARLINK-2480","COUNTRY_CODE":"US","ELEMENT_SET_NO":"999","MEAN_MOTION_DDOT":"0.0000000000000","NORAD_CAT_ID":"48137","RCS_SIZE":"LARGE","MEAN_MOTION_DOT":"-0.00000682","TIME_SYSTEM":"UTC","MEAN_MOTION":"15.06399414","EPHEMERIS_TYPE":"0","FILE":"3255236","TLE_LINE2":"2 48137  53.0541 183.7332 0002340  84.4328 275.6928 15.06399414 41969","OBJECT_TYPE":"PAYLOAD","REF_FRAME":"TEME","ECCENTRICITY":"0.00023400","EPOCH":"2021-12-29T20:50:34.759104","GP_ID":"192743861","PERIAPSIS":"545.595"},{"RA_OF_ASC_NODE":"203.6408","LAUNCH_DATE":"2021-04-07","SITE":"AFETR","BSTAR":"0.00014449000000","CENTER_NAME":"EARTH","OBJECT_ID":"2021-027AY","TLE_LINE1":"1 48138U 21027AY  21363.89335286  .00001871  00000-0  14449-3 0  9997","MEAN_ELEMENT_THEORY":"SGP4","PERIOD":"95.592","REV_AT_EPOCH":"4169","APOAPSIS":"549.120","CLASSIFICATION_TYPE":"U","SEMIMAJOR_AXIS":"6925.333","INCLINATION":"53.0555","ELEMENT_SET_NO":"999","COUNTRY_CODE":"US","MEAN_MOTION_DDOT":"0.0000000000000","NORAD_CAT_ID":"48138","RCS_SIZE":"LARGE","MEAN_MOTION_DOT":"0.00001871","TIME_SYSTEM":"UTC","EPHEMERIS_TYPE":"0","MEAN_MOTION":"15.06405173","MEAN_ANOMALY":"284.0974","DECAY_DATE":null,"ARG_OF_PERICENTER":"76.0323","OBJECT_NAME":"STARLINK-2481","ECCENTRICITY":"0.00027760","GP_ID":"192744610","EPOCH":"2021-12-29T21:26:25.687104","PERIAPSIS":"545.275","FILE":"3255236","TLE_LINE2":"2 48138  53.0555 203.6408 0002776  76.0323 284.0974 15.06405173 41691","OBJECT_TYPE":"PAYLOAD","REF_FRAME":"TEME"},{"PERIAPSIS":"545.440","EPOCH":"2021-12-29T21:13:10.490880","GP_ID":"192744862","ECCENTRICITY":"0.00025680","REF_FRAME":"TEME","OBJECT_TYPE":"PAYLOAD","FILE":"3255236","TLE_LINE2":"2 48139  53.0541 183.6638 0002568  81.6926 278.4354 15.06398497 41979","MEAN_MOTION":"15.06398497","EPHEMERIS_TYPE":"0","MEAN_MOTION_DOT":"-0.00000224","TIME_SYSTEM":"UTC","NORAD_CAT_ID":"48139","RCS_SIZE":"LARGE","MEAN_MOTION_DDOT":"0.0000000000000","ELEMENT_SET_NO":"999","COUNTRY_CODE":"US","OBJECT_NAME":"STARLINK-2482","ARG_OF_PERICENTER":"81.6926","DECAY_DATE":null,"MEAN_ANOMALY":"278.4354","INCLINATION":"53.0541","SEMIMAJOR_AXIS":"6925.353","CLASSIFICATION_TYPE":"U","APOAPSIS":"548.997","SITE":"AFETR","LAUNCH_DATE":"2021-04-07","RA_OF_ASC_NODE":"183.6638","REV_AT_EPOCH":"4197","PERIOD":"95.592","MEAN_ELEMENT_THEORY":"SGP4","TLE_LINE1":"1 48139U 21027AZ  21363.88414920 -.00000224  00000-0  38694-5 0  9992","OBJECT_ID":"2021-027AZ","CENTER_NAME":"EARTH","BSTAR":"0.00000386940000"},{"SITE":"AFETR","LAUNCH_DATE":"2021-04-07","RA_OF_ASC_NODE":"203.8119","REV_AT_EPOCH":"4168","PERIOD":"95.592","MEAN_ELEMENT_THEORY":"SGP4","TLE_LINE1":"1 48140U 21027BA  21363.85186587  .00001761  00000-0  13714-3 0  9996","OBJECT_ID":"2021-027BA","CENTER_NAME":"EARTH","BSTAR":"0.00013714000000","INCLINATION":"53.0544","SEMIMAJOR_AXIS":"6925.361","CLASSIFICATION_TYPE":"U","APOAPSIS":"548.817","MEAN_MOTION":"15.06396032","EPHEMERIS_TYPE":"0","TIME_SYSTEM":"UTC","MEAN_MOTION_DOT":"0.00001761","NORAD_CAT_ID":"48140","RCS_SIZE":"LARGE","MEAN_MOTION_DDOT":"0.0000000000000","ELEMENT_SET_NO":"999","COUNTRY_CODE":"US","OBJECT_NAME":"STARLINK-2483","ARG_OF_PERICENTER":"84.4877","DECAY_DATE":null,"MEAN_ANOMALY":"275.6374","PERIAPSIS":"545.634","EPOCH":"2021-12-29T20:26:41.211168","GP_ID":"192743610","ECCENTRICITY":"0.00022980","REF_FRAME":"TEME","OBJECT_TYPE":"PAYLOAD","TLE_LINE2":"2 48140  53.0544 203.8119 0002298  84.4877 275.6374 15.06396032 41681","FILE":"3255236"},{"MEAN_MOTION":"15.06392493","EPHEMERIS_TYPE":"0","TIME_SYSTEM":"UTC","MEAN_MOTION_DOT":"-0.00000775","NORAD_CAT_ID":"48141","RCS_SIZE":"LARGE","MEAN_MOTION_DDOT":"0.0000000000000","COUNTRY_CODE":"US","ELEMENT_SET_NO":"999","OBJECT_NAME":"STARLINK-2484","ARG_OF_PERICENTER":"82.1746","DECAY_DATE":null,"MEAN_ANOMALY":"277.9499","PERIAPSIS":"545.671","EPOCH":"2021-12-29T20:59:54.454848","GP_ID":"192744362","ECCENTRICITY":"0.00022610","REF_FRAME":"TEME","OBJECT_TYPE":"PAYLOAD","FILE":"3255236","TLE_LINE2":"2 48141  53.0538 203.7225 0002261  82.1746 277.9499 15.06392493 41705","SITE":"AFETR","LAUNCH_DATE":"2021-04-07","RA_OF_ASC_NODE":"203.7225","PERIOD":"95.593","REV_AT_EPOCH":"4170","MEAN_ELEMENT_THEORY":"SGP4","TLE_LINE1":"1 48141U 21027BB  21363.87493582 -.00000775  00000-0 -33110-4 0  9994","OBJECT_ID":"2021-027BB","BSTAR":"-0.00003311000000","CENTER_NAME":"EARTH","INCLINATION":"53.0538","SEMIMAJOR_AXIS":"6925.372","CLASSIFICATION_TYPE":"U","APOAPSIS":"548.802"},{"PERIAPSIS":"545.452","ECCENTRICITY":"0.00025440","EPOCH":"2021-12-29T19:32:19.307904","GP_ID":"192745111","OBJECT_TYPE":"PAYLOAD","REF_FRAME":"TEME","FILE":"3255236","TLE_LINE2":"2 48142  53.0526 183.9921 0002544  81.0154 279.1122 15.06399757 41965","RCS_SIZE":"LARGE","NORAD_CAT_ID":"48142","MEAN_MOTION_DOT":"0.00002232","TIME_SYSTEM":"UTC","EPHEMERIS_TYPE":"0","MEAN_MOTION":"15.06399757","ELEMENT_SET_NO":"999","COUNTRY_CODE":"US","MEAN_MOTION_DDOT":"0.0000000000000","OBJECT_NAME":"STARLINK-2485","MEAN_ANOMALY":"279.1122","DECAY_DATE":null,"ARG_OF_PERICENTER":"81.0154","SEMIMAJOR_AXIS":"6925.349","INCLINATION":"53.0526","APOAPSIS":"548.976","CLASSIFICATION_TYPE":"U","LAUNCH_DATE":"2021-04-07","SITE":"AFETR","RA_OF_ASC_NODE":"183.9921","OBJECT_ID":"2021-027BC","TLE_LINE1":"1 48142U 21027BC  21363.81411236  .00002232  00000-0  16873-3 0  9999","MEAN_ELEMENT_THEORY":"SGP4","REV_AT_EPOCH":"4196","PERIOD":"95.592","BSTAR":"0.00016873000000","CENTER_NAME":"EARTH"}];
